{
    "links": {
        "self": "http://www.neowsapp.com/rest/v1/neo/3655876?api_key=iIulBulltgU6a56xZRHN4H3l9WmuAYTsLGpBGhQ2"
    },
    "id": "3655876",
    "neo_reference_id": "3655876",
    "name": "(2014 AD33)",
    "designation": "2014 AD33",
    "nasa_jpl_url": "http://ssd.jpl.nasa.gov/sbdb.cgi?sstr=3655876",
    "absolute_magnitude_h": 22.0,
    "estimated_diameter": {
        "kilometers": {
            "estimated_diameter_min": 0.1058168859,
            "estimated_diameter_max": 0.2366137501
        },
        "meters": {
            "estimated_diameter_min": 105.8168859331,
            "estimated_diameter_max": 236.6137501138
        },
        "miles": {
            "estimated_diameter_min": 0.0657515442,
            "estimated_diameter_max": 0.1470249225
        },
        "feet": {
            "estimated_diameter_min": 347.1682720448,
            "estimated_diameter_max": 776.2918559233
        }
    },
    "is_potentially_hazardous_asteroid": false,
    "close_approach_data": [
        {
            "close_approach_date": "2014-01-07",
            "close_approach_date_full": "2014-Jan-07 14:12",
            "epoch_date_close_approach": 1389103920000,
            "relative_velocity": {
                "kilometers_per_second": "25.851057941",
                "kilometers_per_hour": "93063.8085875492",
                "miles_per_hour": "57826.2315081914"
            },
            "miss_distance": {
                "astronomical": "0.1615671776",
                "lunar": "62.8496320864",
                "kilometers": "24170105.630871712",
                "miles": "15018607.2169531456"
            },
            "orbiting_body": "Earth"
        }
    ],
    "orbital_data": {
        "orbit_id": "10",
        "orbit_determination_date": "2017-04-06 08:42:55",
        "first_observation_date": "2014-01-09",
        "last_observation_date": "2014-01-29",
        "data_arc_in_days": 20,
        "observations_used": 44,
        "orbit_uncertainty": "8",
        "minimum_orbit_intersection": ".115206",
        "jupiter_tisserand_invariant": "3.437",
        "epoch_osculation": "2456670.5",
        "eccentricity": ".7002125079269217",
        "semi_major_axis": "1.884310001184704",
        "inclination": "38.20349538191842",
        "ascending_node_longitude": "297.6716017555026",
        "orbital_period": "944.771875909558",
        "perihelion_distance": ".5648925695433817",
        "perihelion_argument": "74.4068565727663",
        "aphelion_distance": "3.203727432826027",
        "perihelion_time": "2456610.496944811523",
        "mean_anomaly": "22.86382609246888",
        "mean_motion": ".3810443655019028",
        "equinox": "J2000",
        "orbit_class": {
            "orbit_class_type": "APO",
            "orbit_class_description": "Near-Earth asteroid orbits which cross the Earth’s orbit similar to that of 1862 Apollo",
            "orbit_class_range": "a (semi-major axis) > 1.0 AU; q (perihelion) < 1.017 AU"
        }
    },
    "is_sentry_object": false
}